319P/Catalina-McNaught,e,15.0955,111.3614,203.6595,3.564833,0.1464351,0.66651812,53.5397,04/01.0/2023,2000,g 15.0,4.0
# From MPC 96281
320P/McNaught,e,4.9047,295.9485,0.7844,3.094425,0.1810648,0.68516863,145.6074,04/01.0/2023,2000,g 20.5,4.0
# From MPC105243
321P/SOHO,e,20.0808,165.0181,172.7456,2.423071,0.2613092,0.98107451,0.0000,10/26.6052/2023,2000,g 20.0,4.0
# From MPC102103
322P/SOHO,e,11.4649,351.4960,56.9171,2.507414,0.2482361,0.97997693,0.0000,08/21.0862/2023,2000,g 19.0,4.0
# From MPEC 2016-Y36
323P/SOHO,e,5.3172,324.4115,353.0300,2.583310,0.2373774,0.98473843,0.0000,03/14.4349/2025,2000,g 20.0,4.0
# From MPEC 2021-W31
324P/LaSagra,e,21.4026,270.5847,57.5466,3.094717,0.1810392,0.15360287,125.9936,04/01.0/2023,2000,g 13.0,4.0
# From MPEC 2022-TA0
325P/Yang-Gao,e,16.6974,257.4690,343.8846,3.527584,0.1487606,0.59356313,54.6979,04/01.0/2023,2000,g 14.0,4.0
# From MPC103849
326P/Hill,e,2.4711,99.8085,278.6530,4.062949,0.1203489,0.31834622,327.0828,04/01.0/2023,2000,g 13.5,4.0
# From MPEC 2023-B57
327P/VanNess,e,36.2505,173.9837,185.0190,3.561955,0.1466126,0.56315246,30.8820,04/01.0/2023,2000,g 16.0,4.0
# From MPC109148
328P/LONEOS-Tucker,e,17.6722,341.6215,30.5978,4.190255,0.1149062,0.55273491,304.3961,04/01.0/2023,2000,g 14.5,4.0
# From MPC101101
329P/LINEAR-Catalina,e,21.7092,87.6544,343.5537,5.187692,0.0834147,0.67831507,223.3082,04/01.0/2023,2000,g 13.5,4.0
# From MPEC 2022-K19
330P/Catalina,e,15.7132,293.0813,188.8440,6.620977,0.0578523,0.54902632,139.3704,04/01.0/2023,2000,g 12.0,4.0
# From MPEC 2022-C56
331P/Gibbs,e,9.7398,216.7517,184.5775,3.005215,0.1891868,0.04130683,171.9906,04/01.0/2023,2000,g 12.0,4.0
# From MPEC 2016-K18
332P/Ikeya-Murakami,e,9.3803,3.7829,152.2966,3.087518,0.1816727,0.48930494,107.3168,04/01.0/2023,2000,g 18.0,4.0
# From MPEC 2016-EI8
332P-B/Ikeya-Murakami,e,9.3805,3.8028,152.3711,3.082329,0.1821317,0.48970701,359.9699,03/17.0/2016,2000,g 19.0,4.0
# From MPEC 2016-K18
332P-C/Ikeya-Murakami,e,9.3794,3.7833,152.2879,3.087484,0.1816757,0.48931044,107.3328,04/01.0/2023,2000,g 16.5,4.0
# From MPEC 2016-ED0
332P-D/Ikeya-Murakami,e,9.3761,3.7923,152.4393,3.081138,0.1822373,0.48977814,359.9486,03/17.0/2016,2000,g 19.0,4.0
# From MPEC 2016-ED0
332P-E/Ikeya-Murakami,e,9.3774,3.8228,152.2825,3.079877,0.1823493,0.48922008,359.9889,03/17.0/2016,2000,g 21.0,4.0
# From MPEC 2016-ED0
332P-F/Ikeya-Murakami,e,9.5293,3.4757,152.8203,3.163214,0.1751908,0.49918860,359.8501,03/17.0/2016,2000,g 21.0,4.0
# From MPEC 2016-ED0
332P-G/Ikeya-Murakami,e,9.2523,3.6955,154.4000,3.050519,0.1849880,0.49200362,359.9006,03/19.0/2016,2000,g 19.0,4.0
# From MPC100285
332P-H/Ikeya-Murakami,e,9.3799,3.7830,152.2885,3.087667,0.1816596,0.48934586,107.2581,04/01.0/2023,2000,g 19.0,4.0
# From MPEC 2016-ED0
332P-I/Ikeya-Murakami,e,9.3791,3.8048,152.3297,3.081767,0.1821815,0.48955490,359.9360,03/17.0/2016,2000,g 20.5,2.0
# From MPEC 2016-EI8
332P-J/Ikeya-Murakami,e,9.4296,3.6729,152.7712,3.115165,0.1792596,0.49429435,359.8613,03/17.0/2016,2000,g 20.5,2.0
# From MPEC 2020-L06
333P/LINEAR,e,132.0130,115.6721,25.9873,4.221513,0.1136323,0.73638796,290.8840,04/01.0/2023,2000,g 15.0,4.0
# From MPC115888
334P/NEAT,e,20.3914,90.5658,90.0778,6.834855,0.0551582,0.35060693,117.3507,04/01.0/2023,2000,g 10.5,4.0
# From MPEC 2021-U31
335P/Gibbs,e,7.2928,330.8427,162.3047,3.578484,0.1455980,0.54625832,33.7777,04/01.0/2023,2000,g 17.0,4.0
# From MPC105244
336P/McNaught,e,17.8247,298.2734,308.6703,5.036567,0.0871971,0.44386094,196.4205,04/01.0/2023,2000,g 13.5,4.0
# From MPEC 2022-YN2
337P/WISE,e,15.3679,106.0282,161.1172,3.288493,0.1652756,0.49692255,45.2392,04/01.0/2023,2000,g 17.0,4.0
# From MPEC 2022-K19
338P/McNaught,e,25.3863,9.7984,4.5177,3.893170,0.1283066,0.41213551,297.1492,04/01.0/2023,2000,g 12.0,4.0
# From MPC101101
339P/Gibbs,e,5.7332,172.7229,27.4663,3.700324,0.1384664,0.63563662,338.9595,04/01.0/2023,2000,g 17.0,4.0
# From MPC133426
340P/Boattini,e,2.0779,291.6461,36.0420,4.249898,0.1124958,0.28067194,260.9176,04/01.0/2023,2000,g 14.3,4.0
# From MPEC 2022-K19
341P/Gibbs,e,3.7972,29.9678,312.2805,4.290111,0.1109178,0.41569613,276.5527,04/01.0/2023,2000,g 12.5,4.0
# From MPC101101
342P/SOHO,e,11.6669,27.7118,73.2483,3.041240,0.1858352,0.98281476,0.0000,10/19.2858/2021,2000,g  9.0,4.0
# From MPEC 2022-K19
343P/NEAT-LONEOS,e,5.5922,257.0990,137.5028,5.457807,0.0772995,0.58521725,173.9600,04/01.0/2023,2000,g 14.0,4.0
# From MPC109148
344P/Read,e,3.4958,273.1138,140.4652,4.860436,0.0919795,0.42335483,215.0938,04/01.0/2023,2000,g 13.0,4.0
# From MPEC 2022-K19
345P/LINEAR,e,2.7275,154.5136,196.6311,4.034028,0.1216454,0.22147727,297.0656,04/01.0/2023,2000,g 12.0,4.0
# From MPEC 2022-K19
346P/Catalina,e,22.2062,102.4519,335.9689,4.472746,0.1041940,0.50338909,233.0416,04/01.0/2023,2000,g 14.0,4.0
# From MPEC 2022-K19
347P/PANSTARRS,e,11.7539,261.0202,98.4340,3.604547,0.1440217,0.38619556,344.1466,04/01.0/2023,2000,g 15.0,4.0
# From MPEC 2022-ED3
348P/PANSTARRS,e,17.7370,312.9347,135.6909,3.151798,0.1761434,0.30712750,72.6364,04/01.0/2023,2000,g 14.0,4.0
# From MPEC 2022-K19
349P/Lemmon,e,5.4897,331.7563,255.8638,3.576803,0.1457007,0.29840765,298.4571,04/01.0/2023,2000,g 14.0,4.0
# From MPC111775
350P/McNaught,e,7.3646,65.2941,139.7086,4.083839,0.1194266,0.09361888,230.9883,04/01.0/2023,2000,g 14.0,4.0
# From MPC105244
351P/Wiegert-PANSTARRS,e,12.7780,283.4159,352.6614,4.439586,0.1053635,0.29501775,283.5460,04/01.0/2023,2000,g 12.5,4.0
# From MPC110086
352P/Skiff,e,21.0136,28.0006,309.3693,6.646470,0.0575198,0.61764092,121.2682,04/01.0/2023,2000,g 11.5,4.0
# From MPEC 2020-AA5
353P/McNaught,e,28.4094,121.5174,230.4908,4.170588,0.1157199,0.47032381,222.6717,04/01.0/2023,2000,g 14.5,4.0
# From MPC105545
354P/LINEAR,e,5.2510,320.1031,132.6243,2.290890,0.2842482,0.12501118,304.3636,04/01.0/2023,2000,g 15.5,4.0
# From MPEC 2023-CD7
355P/LINEAR-NEAT,e,11.0470,51.4336,336.3199,3.469024,0.1525433,0.50789329,304.1065,04/01.0/2023,2000,g 15.5,2.0
# From MPEC 2022-F14
356P/WISE,e,9.6375,160.7906,226.0738,4.156406,0.1163127,0.35596981,224.1893,04/01.0/2023,2000,g 14.0,4.0
# From MPC114609
357P/Hill,e,6.3164,44.5580,1.4152,4.457530,0.1047280,0.43588094,184.9225,04/01.0/2023,2000,g 15.5,4.0
# From MPEC 2020-HN5
358P/PANSTARRS,e,11.0601,85.7008,299.7707,3.146979,0.1765482,0.23906595,320.4311,04/01.0/2023,2000,g 18.0,4.0
# From MPC110086
359P/LONEOS,e,10.2647,149.7489,200.2892,4.640380,0.0985993,0.32404137,201.7731,04/01.0/2023,2000,g 13.5,4.0
# From MPC108599
360P/WISE,e,24.1108,2.1899,354.2147,3.699435,0.1385163,0.49929862,283.5906,04/01.0/2023,2000,g 19.5,6.0
# From MPEC 2023-CD7
361P/Spacewatch,e,13.9035,203.2593,219.0089,4.934890,0.0899058,0.43915109,155.7083,04/01.0/2023,2000,g 12.0,4.0
# From MPEC 2017-V13
362P/,e,15.5570,192.5450,53.5724,3.972383,0.1244880,0.27870942,300.6809,04/01.0/2023,2000,g 12.9,2.0
# From MPC114609
363P/Lemmon,e,5.4022,146.8701,340.8860,3.569647,0.1461390,0.51963243,273.4531,04/01.0/2023,2000,g 17.5,4.0
# From MPEC 2023-FK0
364P/PANSTARRS,e,12.1358,46.1517,212.0133,2.880456,0.2016100,0.72181589,351.3276,04/01.0/2023,2000,g 17.0,2.0
# From MPC111775
365P/PANSTARRS,e,9.8438,86.3086,67.7540,3.156791,0.1757257,0.58136149,326.3723,04/01.0/2023,2000,g 17.0,4.0
# From MPC114610
366P/Spacewatch,e,8.8569,70.7628,153.0271,3.497240,0.1507010,0.34808604,258.8437,04/01.0/2023,2000,g 15.0,4.0
# From MPC112395
367P/Catalina,e,8.4593,58.7174,172.7713,3.508221,0.1499939,0.27972474,262.1937,04/01.0/2023,2000,g 17.5,2.0
# From MPC114610
368P/NEAT,e,15.4830,257.8345,118.9443,5.530145,0.0757878,0.62670762,125.6727,04/01.0/2023,2000,g 14.0,4.0
# From MPC114610
369P/Hill,e,10.3246,47.2922,13.1600,4.381247,0.1074750,0.55552001,174.8835,04/01.0/2023,2000,g 15.0,4.0
# From MPEC 2021-F20
370P/NEAT,e,19.4271,55.0663,356.7161,6.435123,0.0603766,0.61541192,105.9500,04/01.0/2023,2000,g 13.0,4.0
# From MPC114610
371P/LINEAR-Skiff,e,17.3866,67.2381,308.5732,4.180629,0.1153033,0.47709438,188.8071,04/01.0/2023,2000,g 16.0,4.0
# From MPEC 2020-K19
372P/McNaught,e,9.5056,325.8153,27.6673,4.508533,0.1029559,0.15238330,166.7401,04/01.0/2023,2000,g 13.5,4.0
# From MPEC 2021-F20
373P/Rinner,e,13.7704,231.9652,221.0035,3.800456,0.1330303,0.39303910,193.2544,04/01.0/2023,2000,g 14.5,4.0
# From MPC114610
374P/Larson,e,10.7662,7.9127,51.4564,4.971390,0.0889175,0.46347901,136.9180,04/01.0/2023,2000,g 14.0,4.0
# From MPEC 2021-F20
375P/Hill,e,17.3620,359.9394,119.3638,5.549365,0.0753944,0.65909469,117.7599,04/01.0/2023,2000,g 16.0,4.0
# From MPEC 2022-K19
376P/LONEOS,e,1.1694,313.3763,285.0804,5.764205,0.0712188,0.51559316,91.7679,04/01.0/2023,2000,g 12.5,4.0
# From MPEC 2022-N37
377P/Scotti,e,9.0242,226.0660,354.9940,6.702551,0.0567994,0.25129165,56.4511,04/01.0/2023,2000,g  9.5,4.0
# From MPEC 2023-D41
378P/McNaught,e,19.0710,94.0302,193.5807,6.320570,0.0620254,0.46710138,55.6650,04/01.0/2023,2000,g 12.0,4.0
# From MPC115889
379P/Spacewatch,e,12.4509,183.8329,30.5547,3.504407,0.1502388,0.34537204,200.5926,04/01.0/2023,2000,g 15.0,4.0
# From MPEC 2023-C45
380P/PANSTARRS,e,8.0652,130.5480,86.7506,4.410625,0.1064030,0.34329350,150.3390,04/01.0/2023,2000,g 12.5,4.0
# From MPEC 2021-J28
381P/LINEAR-Spacewatch,e,28.3764,173.7635,173.3054,7.138057,0.0516814,0.68171619,66.2497,04/01.0/2023,2000,g 17.5,2.0
# From MPEC 2022-Y15
382P/Larson,e,8.4079,173.5428,165.0221,6.131608,0.0649146,0.28515214,29.8814,04/01.0/2023,2000,g  8.0,4.0
# From MPEC 2022-OB6
383P/Christensen,e,12.3265,207.8191,133.7863,3.547162,0.1475308,0.59928882,184.7720,04/01.0/2023,2000,g 18.0,4.0
# From MPEC 2022-OB6
384P/Kowalski,e,7.2836,354.2203,37.6534,2.899663,0.1996102,0.61623418,252.7846,04/01.0/2023,2000,g 19.5,4.0
# From MPEC 2021-F20
385P/Hill,e,16.8304,357.0578,44.3570,4.288548,0.1109785,0.40208844,143.5065,04/01.0/2023,2000,g 13.0,4.0
# From MPEC 2021-L04
386P/PANSTARRS,e,15.2328,134.9312,353.1034,4.052342,0.1208217,0.41649518,115.3746,04/01.0/2023,2000,g 14.5,4.0
# From MPEC 2021-J28
